{"type": "FeatureCollection", "features": [ {"type": "Feature", "properties": {"norad_id": 57401, "name": "TIANMU-1 09", "group": "weather", "lat": -31.634063000173857, "lon": 42.915326229513575, "alt_km": 489.01377482825956, "timestamp": "2025-12-15T07:02:37.259257+00:00", "meta": {"OBJECT_NAME": "TIANMU-1 09", "OBJECT_ID": "2023-101C", "EPOCH": "2025-12-14T23:19:30.954720", "MEAN_MOTION": 15.28122125, "ECCENTRICITY": 0.00067319, "INCLINATION": 97.2827, "RA_OF_ASC_NODE": 38.0825, "ARG_OF_PERICENTER": 77.673, "MEAN_ANOMALY": 282.5263, "EPHEMERIS_TYPE": 0, "CLASSIFICATION_TYPE": "U", "NORAD_CAT_ID": 57401, "ELEMENT_SET_NO": 999, "REV_AT_EPOCH": 13349, "BSTAR": 0.00021275958, "MEAN_MOTION_DOT": 5.764e-05, "MEAN_MOTION_DDOT": 0}, "tle": {"line1": "1 57401U 23101C   25348.97188605  .00005764  00000+0  21276-3 0  9992", "line2": "2 57401  97.2827  38.0825 0006731  77.6730 282.5263 15.28122125133494"}}, "geometry": {"type": "Point", "coordinates": [42.915326229513575, -31.634063000173857]}}, {"type": "Feature", "properties": {"norad_id": 57402, "name": "TIANMU-1 10", "group": "weather", "lat": 39.32972137012855, "lon": -134.72920040862363, "alt_km": 475.9976506004559, "timestamp": "2025-12-15T07:02:37.259268+00:00", "meta": {"OBJECT_NAME": "TIANMU-1 10", "OBJECT_ID": "2023-101D", "EPOCH": "2025-12-14T22:34:30.387936", "MEAN_MOTION": 15.28113181, "ECCENTRICITY": 0.00084654, "INCLINATION": 97.2907, "RA_OF_ASC_NODE": 38.9041, "ARG_OF_PERICENTER": 77.114, "MEAN_ANOMALY": 283.1045, "EPHEMERIS_TYPE": 0, "CLASSIFICATION_TYPE": "U", "NORAD_CAT_ID": 57402, "ELEMENT_SET_NO": 999, "REV_AT_EPOCH": 13348, "BSTAR": 0.00020675526, "MEAN_MOTION_DOT": 5.599e-05, "MEAN_MOTION_DDOT": 0}, "tle": {"line1": "1 57402U 23101D   25348.94062949  .00005599  00000+0  20676-3 0  9991", "line2": "2 57402  97.2907  38.9041 0008465  77.1140 283.1045 15.28113181133485"}}, "geometry": {"type": "Point", "coordinates": [-134.72920040862363, 39.32972137012855]}}, {"type": "Feature", "properties": {"norad_id": 57490, "name": "FENGYUN 3F", "group": "weather", "lat": 52.362246217708794, "lon": -110.99072175872831, "alt_km": 820.3313977881535, "timestamp": "2025-12-15T07:02:37.259281+00:00", "meta": {"OBJECT_NAME": "FENGYUN 3F", "OBJECT_ID": "2023-111A", "EPOCH": "2025-12-14T23:41:03.139296", "MEAN_MOTION": 14.19894119, "ECCENTRICITY": 6.792e-05, "INCLINATION": 98.7081, "RA_OF_ASC_NODE": 57.244, "ARG_OF_PERICENTER": 106.2446, "MEAN_ANOMALY": 253.8806, "EPHEMERIS_TYPE": 0, "CLASSIFICATION_TYPE": "U", "NORAD_CAT_ID": 57490, "ELEMENT_SET_NO": 999, "REV_AT_EPOCH": 12272, "BSTAR": 5.848067e-05, "MEAN_MOTION_DOT": 8.1e-07, "MEAN_MOTION_DDOT": 0}, "tle": {"line1": "1 57490U 23111A   25348.98684189  .00000081  00000+0  58481-4 0  9996", "line2": "2 57490  98.7081  57.2440 0000679 106.2446 253.8806 14.19894119122720"}}, "geometry": {"type": "Point", "coordinates": [-110.99072175872831, 52.362246217708794]}}, {"type": "Feature", "properties": {"norad_id": 58584, "name": "ARKTIKA-M 2", "group": "weather", "lat": -62.078388154842116, "lon": 66.99409939014035, "alt_km": 1976.6085230403032, "timestamp": "2025-12-15T07:02:37.259294+00:00", "meta": {"OBJECT_NAME": "ARKTIKA-M 2", "OBJECT_ID": "2023-198A", "EPOCH": "2025-12-08T20:10:13.977120", "MEAN_MOTION": 2.0060476, "ECCENTRICITY": 0.68646991, "INCLINATION": 63.2247, "RA_OF_ASC_NODE": 175.3152, "ARG_OF_PERICENTER": 268.1185, "MEAN_ANOMALY": 18.8267, "EPHEMERIS_TYPE": 0, "CLASSIFICATION_TYPE": "U", "NORAD_CAT_ID": 58584, "ELEMENT_SET_NO": 999, "REV_AT_EPOCH": 1450, "BSTAR": 0, "MEAN_MOTION_DOT": 1.66e-06, "MEAN_MOTION_DDOT": 0}, "tle": {"line1": "1 58584U 23198A   25342.84043955  .00000166  00000+0  00000+0 0  9998", "line2": "2 58584  63.2247 175.3152 6864699 268.1185  18.8267  2.00604760 14506"}}, "geometry": {"type": "Point", "coordinates": [66.99409939014035, -62.078388154842116]}}, {"type": "Feature", "properties": {"norad_id": 58645, "name": "TIANMU-1 11", "group": "weather", "lat": -71.29878214285425, "lon": 31.323435896734715, "alt_km": 493.9921747877588, "timestamp": "2025-12-15T07:02:37.259309+00:00", "meta": {"OBJECT_NAME": "TIANMU-1 11", "OBJECT_ID": "2023-205A", "EPOCH": "2025-12-14T23:29:10.276224", "MEAN_MOTION": 15.24630549, "ECCENTRICITY": 0.00077743, "INCLINATION": 97.3609, "RA_OF_ASC_NODE": 8.5628, "ARG_OF_PERICENTER": 301.168, "MEAN_ANOMALY": 58.8795, "EPHEMERIS_TYPE": 0, "CLASSIFICATION_TYPE": "U", "NORAD_CAT_ID": 58645, "ELEMENT_SET_NO": 999, "REV_AT_EPOCH": 10943, "BSTAR": 0.00019613089, "MEAN_MOTION_DOT": 4.772e-05, "MEAN_MOTION_DDOT": 0}, "tle": {"line1": "1 58645U 23205A   25348.97859116  .00004772  00000+0  19613-3 0  9990", "line2": "2 58645  97.3609   8.5628 0007774 301.1680  58.8795 15.24630549109435"}}, "geometry": {"type": "Point", "coordinates": [31.323435896734715, -71.29878214285425]}}, {"type": "Feature", "properties": {"norad_id": 58646, "name": "TIANMU-1 12", "group": "weather", "lat": 41.10430957872614, "lon": -164.8481208587372, "alt_km": 492.1544702646197, "timestamp": "2025-12-15T07:02:37.259320+00:00", "meta": {"OBJECT_NAME": "TIANMU-1 12", "OBJECT_ID": "2023-205B", "EPOCH": "2025-12-15T00:08:13.402752", "MEAN_MOTION": 15.24514296, "ECCENTRICITY": 0.00057961, "INCLINATION": 97.3596, "RA_OF_ASC_NODE": 8.3942, "ARG_OF_PERICENTER": 281.0583, "MEAN_ANOMALY": 79.0003, "EPHEMERIS_TYPE": 0, "CLASSIFICATION_TYPE": "U", "NORAD_CAT_ID": 58646, "ELEMENT_SET_NO": 999, "REV_AT_EPOCH": 10942, "BSTAR": 0.00021969922, "MEAN_MOTION_DOT": 5.334e-05, "MEAN_MOTION_DDOT": 0}, "tle": {"line1": "1 58646U 23205B   25349.00571068  .00005334  00000+0  21970-3 0  9997", "line2": "2 58646  97.3596   8.3942 0005796 281.0583  79.0003 15.24514296109424"}}, "geometry": {"type": "Point", "coordinates": [-164.8481208587372, 41.10430957872614]}}, {"type": "Feature", "properties": {"norad_id": 58647, "name": "TIANMU-1 13", "group": "weather", "lat": -44.73337436187349, "lon": 16.238868381722533, "alt_km": 496.72710590887164, "timestamp": "2025-12-15T07:02:37.259331+00:00", "meta": {"OBJECT_NAME": "TIANMU-1 13", "OBJECT_ID": "2023-205C", "EPOCH": "2025-12-14T23:21:55.451808", "MEAN_MOTION": 15.24556889, "ECCENTRICITY": 0.00060604, "INCLINATION": 97.3625, "RA_OF_ASC_NODE": 8.5644, "ARG_OF_PERICENTER": 257.2191, "MEAN_ANOMALY": 102.837, "EPHEMERIS_TYPE": 0, "CLASSIFICATION_TYPE": "U", "NORAD_CAT_ID": 58647, "ELEMENT_SET_NO": 999, "REV_AT_EPOCH": 10941, "BSTAR": 0.00020174549, "MEAN_MOTION_DOT": 4.899e-05, "MEAN_MOTION_DDOT": 0}, "tle": {"line1": "1 58647U 23205C   25348.97355847  .00004899  00000+0  20175-3 0  9999", "line2": "2 58647  97.3625   8.5644 0006060 257.2191 102.8370 15.24556889109419"}}, "geometry": {"type": "Point", "coordinates": [16.238868381722533, -44.73337436187349]}}, {"type": "Feature", "properties": {"norad_id": 58648, "name": "TIANMU-1 14", "group": "weather", "lat": 45.200118843137886, "lon": 0.7505472407537843, "alt_km": 492.1286752278338, "timestamp": "2025-12-15T07:02:37.259342+00:00", "meta": {"OBJECT_NAME": "TIANMU-1 14", "OBJECT_ID": "2023-205D", "EPOCH": "2025-12-14T22:58:03.261216", "MEAN_MOTION": 15.24540079, "ECCENTRICITY": 0.00068361, "INCLINATION": 97.3557, "RA_OF_ASC_NODE": 7.8948, "ARG_OF_PERICENTER": 263.0659, "MEAN_ANOMALY": 96.9802, "EPHEMERIS_TYPE": 0, "CLASSIFICATION_TYPE": "U", "NORAD_CAT_ID": 58648, "ELEMENT_SET_NO": 999, "REV_AT_EPOCH": 10941, "BSTAR": 0.00020824247, "MEAN_MOTION_DOT": 5.057e-05, "MEAN_MOTION_DDOT": 0}, "tle": {"line1": "1 58648U 23205D   25348.95698219  .00005057  00000+0  20824-3 0  9999", "line2": "2 58648  97.3557   7.8948 0006836 263.0659  96.9802 15.24540079109415"}}, "geometry": {"type": "Point", "coordinates": [0.7505472407537843, 45.200118843137886]}}, {"type": "Feature", "properties": {"norad_id": 58660, "name": "TIANMU-1 19", "group": "weather", "lat": -28.400534120306567, "lon": 104.37614645895579, "alt_km": 487.990552923412, "timestamp": "2025-12-15T07:02:37.259352+00:00", "meta": {"OBJECT_NAME": "TIANMU-1 19", "OBJECT_ID": "2023-208A", "EPOCH": "2025-12-14T21:44:17.287296", "MEAN_MOTION": 15.27896881, "ECCENTRICITY": 0.00041751, "INCLINATION": 97.4385, "RA_OF_ASC_NODE": 99.9382, "ARG_OF_PERICENTER": 243.2919, "MEAN_ANOMALY": 116.7893, "EPHEMERIS_TYPE": 0, "CLASSIFICATION_TYPE": "U", "NORAD_CAT_ID": 58660, "ELEMENT_SET_NO": 999, "REV_AT_EPOCH": 10915, "BSTAR": 0.00030244403, "MEAN_MOTION_DOT": 8.164e-05, "MEAN_MOTION_DDOT": 0}, "tle": {"line1": "1 58660U 23208A   25348.90575564  .00008164  00000+0  30244-3 0  9997", "line2": "2 58660  97.4385  99.9382 0004175 243.2919 116.7893 15.27896881109156"}}, "geometry": {"type": "Point", "coordinates": [104.37614645895579, -28.400534120306567]}}, {"type": "Feature", "properties": {"norad_id": 58661, "name": "TIANMU-1 20", "group": "weather", "lat": 55.80109556745918, "lon": 89.70011272472898, "alt_km": 477.36912242540893, "timestamp": "2025-12-15T07:02:37.259362+00:00", "meta": {"OBJECT_NAME": "TIANMU-1 20", "OBJECT_ID": "2023-208B", "EPOCH": "2025-12-14T22:56:39.423840", "MEAN_MOTION": 15.29085813, "ECCENTRICITY": 0.00063497, "INCLINATION": 97.4323, "RA_OF_ASC_NODE": 100.4381, "ARG_OF_PERICENTER": 256.7314, "MEAN_ANOMALY": 103.3218, "EPHEMERIS_TYPE": 0, "CLASSIFICATION_TYPE": "U", "NORAD_CAT_ID": 58661, "ELEMENT_SET_NO": 999, "REV_AT_EPOCH": 10923, "BSTAR": 0.00024410755, "MEAN_MOTION_DOT": 6.82e-05, "MEAN_MOTION_DDOT": 0}, "tle": {"line1": "1 58661U 23208B   25348.95601185  .00006820  00000+0  24411-3 0  9998", "line2": "2 58661  97.4323 100.4381 0006349 256.7314 103.3218 15.29085813109238"}}, "geometry": {"type": "Point", "coordinates": [89.70011272472898, 55.80109556745918]}}]}